STARLINK-11129 [DTC]    
1 60038U 24112A   26053.00865213  .00001675  00000+0  18682-4 0  9995
2 60038  53.1602 343.9011 0001395  73.9694 286.1478 15.69713174 98516
STARLINK-11140 [DTC]    
1 60039U 24112B   26053.76777647 -.00000525  00000+0  52315-6 0  9999
2 60039  53.1597 340.0996 0000735 169.3894 190.7139 15.69718474 98634
STARLINK-11122 [DTC]    
1 60040U 24112C   26053.95387722  .00005148  00000+0  47284-4 0  9995
2 60040  53.1560 339.1263 0000584 111.9772 248.1308 15.69727503 98664
STARLINK-11149 [DTC]    
1 60041U 24112D   26053.94896930  .00001075  00000+0  13721-4 0  9995
2 60041  53.1588 339.0929 0000779 137.0110 223.0969 15.69722080 98664
STARLINK-11120 [DTC]    
1 60042U 24112E   26053.94408695 -.00004069  00000+0 -28769-4 0  9999
2 60042  53.1573 339.0595 0001153 109.1747 250.9396 15.69691509 98665
STARLINK-11086 [DTC]    
1 60043U 24112F   26053.93918431 -.00004188  00000+0 -29763-4 0  9990
2 60043  53.1569 339.0260 0000701  80.8737 279.2360 15.69687030 98661
STARLINK-11148 [DTC]    
1 60044U 24112G   26053.93426459 -.00001492  00000+0 -74642-5 0  9997
2 60044  53.1583 338.9896 0000799 157.6298 202.4755 15.69700260 98660
STARLINK-11116 [DTC]    
1 60045U 24112H   26053.92936274  .00004737  00000+0  44046-4 0  9995
2 60045  53.1593 338.9725 0001295  79.4824 280.6340 15.69646158 98664
STARLINK-11155 [DTC]    
1 60046U 24112J   26053.16043613  .00001721  00000+0  19068-4 0  9994
2 60046  53.1590 342.6971 0000653 108.4141 251.6948 15.69689103 98545
STARLINK-11163 [DTC]    
1 60047U 24112K   26053.79219145  .00001216  00000+0  14881-4 0  9996
2 60047  53.1587 339.5245 0001056 103.5685 256.5450 15.69730604 98644
STARLINK-11135 [DTC]    
1 60048U 24112L   26053.77748059  .00000342  00000+0  76769-5 0  9999
2 60048  53.1598 339.4482 0001233  66.5347 293.5800 15.69730386 98646
STARLINK-11151 [DTC]    
1 60049U 24112M   26053.78729261  .00000211  00000+0  65940-5 0  9999
2 60049  53.1587 339.4929 0000870  73.7452 286.3662 15.69724416 98647
STARLINK-11137 [DTC]    
1 60050U 24112N   26053.78238670  .00001010  00000+0  13177-4 0  9992
2 60050  53.1605 339.4627 0000685  40.6804 319.4265 15.69725464 98644
STARLINK-31811          
1 60051U 24112P   26053.67945965  .00001634  00000+0  67253-4 0  9999
2 60051  53.1597 148.0529 0001157  65.0487 295.0634 15.30209630 96291
STARLINK-31775          
1 60052U 24112Q   26053.73528512  .00004508  00000+0  16421-3 0  9995
2 60052  53.1584 147.6908 0001625 118.7378 241.3786 15.30203518 96302
STARLINK-31793          
1 60053U 24112R   26053.28441631 -.00001616  00000+0 -42410-4 0  9999
2 60053  53.1601 149.8607 0001810 108.2146 251.9052 15.30207214 96238
STARLINK-31735          
1 60054U 24112S   26053.53301142  .00001524  00000+0  63597-4 0  9995
2 60054  53.1614 148.5639 0001482 106.7670 253.3493 15.30189205 96272
STARLINK-31788          
1 60055U 24112T   26053.52984818  .00002162  00000+0  85135-4 0  9993
2 60055  53.1598 148.5471 0001388  85.4065 274.7095 15.30188575 96278
STARLINK-31825          
1 60056U 24112U   26053.73212329 -.00000663  00000+0 -10247-4 0  9996
2 60056  53.1605 147.6794 0001576  84.7252 275.3929 15.30188093 96307
STARLINK-31437          
1 60057U 24112V   26053.54251175  .00001946  00000+0  77846-4 0  9999
2 60057  53.1603 148.6259 0001415 102.4216 257.6943 15.30189001 96278
STARLINK-11181 [DTC]    
1 60059U 24113A   26053.88161569  .00000903  00000+0  12301-4 0  9993
2 60059  53.1580 264.3418 0000952 119.9716 240.1397 15.69723098 97239
STARLINK-11176 [DTC]    
1 60060U 24113B   26053.87675703  .00034121  00000+0  28727-3 0  9991
2 60060  53.1589 264.3083 0002016  76.4546 283.6696 15.69545003 97231
STARLINK-11167 [DTC]    
1 60061U 24113C   26053.74447268  .00000184  00000+0  63733-5 0  9991
2 60061  53.1578 264.9023 0000532  63.0709 297.0363 15.69710869 97519
STARLINK-11166 [DTC]    
1 60062U 24113D   26053.73956830  .00007336  00000+0  65337-4 0  9998
2 60062  53.1569 264.8705 0000923 106.6576 253.4543 15.69714683 97217
