OBJECT_NAME,OBJECT_ID,OBJECT_TYPE,EPOCH,MEAN_MOTION,ECCENTRICITY,INCLINATION,RA_OF_ASC_NODE,ARG_OF_PERICENTER,MEAN_ANOMALY,EPHEMERIS_TYPE,CLASSIFICATION_TYPE,NORAD_CAT_ID,ELEMENT_SET_NO,REV_AT_EPOCH,BSTAR,MEAN_MOTION_DOT,MEAN_MOTION_DDOT,WEATHER,BRIGHTEST,EARTH_RESOURCES,NAVIGATION,SCIENTIFIC,MISCELLANEOUS,COMMUNICATION,active geosynchronous,constellations,active_geosynchronous
STARLINK-11129 [DTC],2024-112A,Sattelite,2026-02-22T00:12:27.544032,15.69713174,0.0001395,53.1602,343.9011,73.9694,286.1478,0,U,60038,999,9851,1.8681696e-05,1.675e-05,0.0,False,False,False,False,False,False,False,False,starlink,
STARLINK-11140 [DTC],2024-112B,Sattelite,2026-02-22T18:25:35.887008,15.69718474,7.359e-05,53.1597,340.0996,169.3894,190.7139,0,U,60039,999,9863,5.23152e-07,-5.25e-06,0.0,False,False,False,False,False,False,False,False,starlink,
STARLINK-11122 [DTC],2024-112C,Sattelite,2026-02-22T22:53:34.991808,15.69727503,5.844e-05,53.156,339.1263,111.9772,248.1308,0,U,60040,999,9866,4.7283817e-05,5.148e-05,0.0,False,False,False,False,False,False,False,False,starlink,
STARLINK-11149 [DTC],2024-112D,Sattelite,2026-02-22T22:46:30.947520,15.6972208,7.794e-05,53.1588,339.0929,137.011,223.0969,0,U,60041,999,9866,1.3720554e-05,1.075e-05,0.0,False,False,False,False,False,False,False,False,starlink,
STARLINK-11120 [DTC],2024-112E,Sattelite,2026-02-22T22:39:29.112480,15.69691509,0.00011533,53.1573,339.0595,109.1747,250.9396,0,U,60042,999,9866,-2.8769138e-05,-4.069e-05,0.0,False,False,False,False,False,False,False,False,starlink,
STARLINK-11086 [DTC],2024-112F,Sattelite,2026-02-22T22:32:25.524384,15.6968703,7.018e-05,53.1569,339.026,80.8737,279.236,0,U,60043,999,9866,-2.976339e-05,-4.188e-05,0.0,False,False,False,False,False,False,False,False,starlink,
STARLINK-11148 [DTC],2024-112G,Sattelite,2026-02-22T22:25:20.460576,15.6970026,7.993e-05,53.1583,338.9896,157.6298,202.4755,0,U,60044,999,9866,-7.464181e-06,-1.492e-05,0.0,False,False,False,False,False,False,False,False,starlink,
STARLINK-11116 [DTC],2024-112H,Sattelite,2026-02-22T22:18:16.940736,15.69646158,0.00012952,53.1593,338.9725,79.4824,280.634,0,U,60045,999,9866,4.4046457e-05,4.737e-05,0.0,False,False,False,False,False,False,False,False,starlink,
STARLINK-11155 [DTC],2024-112J,Sattelite,2026-02-22T03:51:01.681632,15.69689103,6.533e-05,53.159,342.6971,108.4141,251.6948,0,U,60046,999,9854,1.9068432e-05,1.721e-05,0.0,False,False,False,False,False,False,False,False,starlink,
STARLINK-11163 [DTC],2024-112K,Sattelite,2026-02-22T19:00:45.341280,15.69730604,0.00010565,53.1587,339.5245,103.5685,256.545,0,U,60047,999,9864,1.488098e-05,1.216e-05,0.0,False,False,False,False,False,False,False,False,starlink,
STARLINK-11135 [DTC],2024-112L,Sattelite,2026-02-22T18:39:34.322976,15.69730386,0.00012338,53.1598,339.4482,66.5347,293.58,0,U,60048,999,9864,7.676902e-06,3.42e-06,0.0,False,False,False,False,False,False,False,False,starlink,
STARLINK-11151 [DTC],2024-112M,Sattelite,2026-02-22T18:53:42.081504,15.69724416,8.701e-05,53.1587,339.4929,73.7452,286.3662,0,U,60049,999,9864,6.593979e-06,2.11e-06,0.0,False,False,False,False,False,False,False,False,starlink,
STARLINK-11137 [DTC],2024-112N,Sattelite,2026-02-22T18:46:38.210880,15.69725464,6.851e-05,53.1605,339.4627,40.6804,319.4265,0,U,60050,999,9864,1.3177046e-05,1.01e-05,0.0,False,False,False,False,False,False,False,False,starlink,
STARLINK-31811,2024-112P,Sattelite,2026-02-22T16:18:25.313760,15.3020963,0.00011574,53.1597,148.0529,65.0487,295.0634,0,U,60051,999,9629,6.7252906e-05,1.634e-05,0.0,False,False,False,False,False,False,False,False,starlink,
STARLINK-31775,2024-112Q,Sattelite,2026-02-22T17:38:48.634368,15.30203518,0.00016255,53.1584,147.6908,118.7378,241.3786,0,U,60052,999,9630,0.00016420824,4.508e-05,0.0,False,False,False,False,False,False,False,False,starlink,
STARLINK-31793,2024-112R,Sattelite,2026-02-22T06:49:33.569184,15.30207214,0.00018105,53.1601,149.8607,108.2146,251.9052,0,U,60053,999,9623,-4.2410365e-05,-1.616e-05,0.0,False,False,False,False,False,False,False,False,starlink,
STARLINK-31735,2024-112S,Sattelite,2026-02-22T12:47:32.186688,15.30189205,0.0001482,53.1614,148.5639,106.767,253.3493,0,U,60054,999,9627,6.3597e-05,1.524e-05,0.0,False,False,False,False,False,False,False,False,starlink,
STARLINK-31788,2024-112T,Sattelite,2026-02-22T12:42:58.882752,15.30188575,0.00013887,53.1598,148.5471,85.4065,274.7095,0,U,60055,999,9627,8.5134663e-05,2.162e-05,0.0,False,False,False,False,False,False,False,False,starlink,
STARLINK-31825,2024-112U,Sattelite,2026-02-22T17:34:15.452256,15.30188093,0.00015766,53.1605,147.6794,84.7252,275.3929,0,U,60056,999,9630,-1.0247287e-05,-6.63e-06,0.0,False,False,False,False,False,False,False,False,starlink,
STARLINK-31437,2024-112V,Sattelite,2026-02-22T13:01:13.015200,15.30189001,0.0001415,53.1603,148.6259,102.4216,257.6943,0,U,60057,999,9627,7.7846e-05,1.946e-05,0.0,False,False,False,False,False,False,False,False,starlink,
STARLINK-11181 [DTC],2024-113A,Sattelite,2026-02-22T21:09:31.595616,15.69723098,9.525e-05,53.158,264.3418,119.9716,240.1397,0,U,60059,999,9723,1.2301269e-05,9.03e-06,0.0,False,False,False,False,False,False,False,False,starlink,
STARLINK-11176 [DTC],2024-113B,Sattelite,2026-02-22T21:02:31.807392,15.69545003,0.00020163,53.1589,264.3083,76.4546,283.6696,0,U,60060,999,9723,0.00028727295,0.00034121,0.0,False,False,False,False,False,False,False,False,starlink,
STARLINK-11167 [DTC],2024-113C,Sattelite,2026-02-22T17:52:02.439552,15.69710869,5.32e-05,53.1578,264.9023,63.0709,297.0363,0,U,60061,999,9751,6.373332e-06,1.84e-06,0.0,False,False,False,False,False,False,False,False,starlink,
STARLINK-11166 [DTC],2024-113D,Sattelite,2026-02-22T17:44:58.701120,15.69714683,9.236e-05,53.1569,264.8705,106.6576,253.4543,0,U,60062,999,9721,6.5337417e-05,7.336e-05,0.0,False,False,False,False,False,False,False,False,starlink,
